{"type": "FeatureCollection", "features": [ {"type": "Feature", "properties": {"norad_id": 38487, "name": "COSMOS 2251 DEB", "group": "cosmos-2251-debris", "lat": 51.50960632389634, "lon": 50.565614406437525, "alt_km": 520.2364385492392, "timestamp": "2025-12-14T20:40:32.171185+00:00", "meta": {"OBJECT_NAME": "COSMOS 2251 DEB", "OBJECT_ID": "1993-036BTX", "EPOCH": "2025-12-13T09:37:35.535936", "MEAN_MOTION": 15.17423621, "ECCENTRICITY": 0.00214146, "INCLINATION": 73.9754, "RA_OF_ASC_NODE": 32.4358, "ARG_OF_PERICENTER": 204.5132, "MEAN_ANOMALY": 155.5048, "EPHEMERIS_TYPE": 0, "CLASSIFICATION_TYPE": "U", "NORAD_CAT_ID": 38487, "ELEMENT_SET_NO": 999, "REV_AT_EPOCH": 66810, "BSTAR": 0.0032557774, "MEAN_MOTION_DOT": 0.00066076, "MEAN_MOTION_DDOT": 0}, "tle": {"line1": "1 38487U 93036BTX 25347.40110574  .00066076  00000+0  32558-2 0  9993", "line2": "2 38487  73.9754  32.4358 0021414 204.5132 155.5048 15.17423621668102"}}, "geometry": {"type": "Point", "coordinates": [50.565614406437525, 51.50960632389634]}}, {"type": "Feature", "properties": {"norad_id": 39109, "name": "COSMOS 2251 DEB", "group": "cosmos-2251-debris", "lat": -19.790461698045824, "lon": -144.94489098316058, "alt_km": 623.389765891332, "timestamp": "2025-12-14T20:40:32.171195+00:00", "meta": {"OBJECT_NAME": "COSMOS 2251 DEB", "OBJECT_ID": "1993-036BTY", "EPOCH": "2025-12-09T10:58:18.988608", "MEAN_MOTION": 14.70683686, "ECCENTRICITY": 0.00592583, "INCLINATION": 74.0426, "RA_OF_ASC_NODE": 231.4464, "ARG_OF_PERICENTER": 335.6145, "MEAN_ANOMALY": 202.0339, "EPHEMERIS_TYPE": 0, "CLASSIFICATION_TYPE": "U", "NORAD_CAT_ID": 39109, "ELEMENT_SET_NO": 999, "REV_AT_EPOCH": 65125, "BSTAR": 0.00089315049, "MEAN_MOTION_DOT": 5.561e-05, "MEAN_MOTION_DDOT": 0}, "tle": {"line1": "1 39109U 93036BTY 25343.45716422  .00005561  00000+0  89315-3 0  9996", "line2": "2 39109  74.0426 231.4464 0059258 335.6145 202.0339 14.70683686651254"}}, "geometry": {"type": "Point", "coordinates": [-144.94489098316058, -19.790461698045824]}}, {"type": "Feature", "properties": {"norad_id": 39110, "name": "COSMOS 2251 DEB", "group": "cosmos-2251-debris", "lat": 7.530226998459902, "lon": -124.81606845155416, "alt_km": 685.4070262354271, "timestamp": "2025-12-14T20:40:32.171205+00:00", "meta": {"OBJECT_NAME": "COSMOS 2251 DEB", "OBJECT_ID": "1993-036BTZ", "EPOCH": "2025-12-03T13:14:13.055136", "MEAN_MOTION": 14.72215365, "ECCENTRICITY": 0.00964609, "INCLINATION": 73.9598, "RA_OF_ASC_NODE": 79.4668, "ARG_OF_PERICENTER": 313.6965, "MEAN_ANOMALY": 59.6182, "EPHEMERIS_TYPE": 0, "CLASSIFICATION_TYPE": "U", "NORAD_CAT_ID": 39110, "ELEMENT_SET_NO": 999, "REV_AT_EPOCH": 62349, "BSTAR": 0.00066560445, "MEAN_MOTION_DOT": 4.484e-05, "MEAN_MOTION_DDOT": 0}, "tle": {"line1": "1 39110U 93036BTZ 25337.55153999  .00004484  00000+0  66560-3 0  9996", "line2": "2 39110  73.9598  79.4668 0096460 313.6965  59.6182 14.72215365623496"}}, "geometry": {"type": "Point", "coordinates": [-124.81606845155416, 7.530226998459902]}}, {"type": "Feature", "properties": {"norad_id": 39111, "name": "COSMOS 2251 DEB", "group": "cosmos-2251-debris", "lat": 59.74259304302906, "lon": 66.18287637896235, "alt_km": 512.1920688783375, "timestamp": "2025-12-14T20:40:32.171215+00:00", "meta": {"OBJECT_NAME": "COSMOS 2251 DEB", "OBJECT_ID": "1993-036BUA", "EPOCH": "2025-12-01T22:58:55.551360", "MEAN_MOTION": 15.11912111, "ECCENTRICITY": 0.00109111, "INCLINATION": 74.0059, "RA_OF_ASC_NODE": 63.5328, "ARG_OF_PERICENTER": 39.1207, "MEAN_ANOMALY": 321.0773, "EPHEMERIS_TYPE": 0, "CLASSIFICATION_TYPE": "U", "NORAD_CAT_ID": 39111, "ELEMENT_SET_NO": 999, "REV_AT_EPOCH": 8982, "BSTAR": 0.0056424119, "MEAN_MOTION_DOT": 0.00098096, "MEAN_MOTION_DDOT": 0}, "tle": {"line1": "1 39111U 93036BUA 25335.95758740  .00098096  00000+0  56424-2 0  9993", "line2": "2 39111  74.0059  63.5328 0010911  39.1207 321.0773 15.11912111 89826"}}, "geometry": {"type": "Point", "coordinates": [66.18287637896235, 59.74259304302906]}}, {"type": "Feature", "properties": {"norad_id": 39546, "name": "COSMOS 2251 DEB", "group": "cosmos-2251-debris", "lat": 8.868624287464515, "lon": 135.0900720104222, "alt_km": 585.786152749667, "timestamp": "2025-12-14T20:40:32.171225+00:00", "meta": {"OBJECT_NAME": "COSMOS 2251 DEB", "OBJECT_ID": "1993-036BUC", "EPOCH": "2025-12-14T02:56:02.642784", "MEAN_MOTION": 14.92108062, "ECCENTRICITY": 0.00440773, "INCLINATION": 73.9975, "RA_OF_ASC_NODE": 134.0104, "ARG_OF_PERICENTER": 293.868, "MEAN_ANOMALY": 65.7886, "EPHEMERIS_TYPE": 0, "CLASSIFICATION_TYPE": "U", "NORAD_CAT_ID": 39546, "ELEMENT_SET_NO": 999, "REV_AT_EPOCH": 64457, "BSTAR": 0.0014045613, "MEAN_MOTION_DOT": 0.0001454, "MEAN_MOTION_DDOT": 0}, "tle": {"line1": "1 39546U 93036BUC 25348.12225281  .00014540  00000+0  14046-2 0  9993", "line2": "2 39546  73.9975 134.0104 0044077 293.8680  65.7886 14.92108062644579"}}, "geometry": {"type": "Point", "coordinates": [135.0900720104222, 8.868624287464515]}}, {"type": "Feature", "properties": {"norad_id": 39547, "name": "COSMOS 2251 DEB", "group": "cosmos-2251-debris", "lat": 73.44432250169639, "lon": 88.86662848271266, "alt_km": 547.5618647779247, "timestamp": "2025-12-14T20:40:32.171235+00:00", "meta": {"OBJECT_NAME": "COSMOS 2251 DEB", "OBJECT_ID": "1993-036BUD", "EPOCH": "2025-12-11T09:19:23.142720", "MEAN_MOTION": 15.03149488, "ECCENTRICITY": 0.00052092, "INCLINATION": 74.0018, "RA_OF_ASC_NODE": 21.1464, "ARG_OF_PERICENTER": 16.2917, "MEAN_ANOMALY": 0.6798, "EPHEMERIS_TYPE": 0, "CLASSIFICATION_TYPE": "U", "NORAD_CAT_ID": 39547, "ELEMENT_SET_NO": 999, "REV_AT_EPOCH": 64005, "BSTAR": 0.0051209995, "MEAN_MOTION_DOT": 0.00069871, "MEAN_MOTION_DDOT": 0}, "tle": {"line1": "1 39547U 93036BUD 25345.38846230  .00069871  00000+0  51210-2 0  9993", "line2": "2 39547  74.0018  21.1464 0005209  16.2917   0.6798 15.03149488640058"}}, "geometry": {"type": "Point", "coordinates": [88.86662848271266, 73.44432250169639]}}, {"type": "Feature", "properties": {"norad_id": 39553, "name": "COSMOS 2251 DEB", "group": "cosmos-2251-debris", "lat": -5.338063592467184, "lon": 147.88014129264346, "alt_km": 877.9929631107789, "timestamp": "2025-12-14T20:40:32.171245+00:00", "meta": {"OBJECT_NAME": "COSMOS 2251 DEB", "OBJECT_ID": "1993-036BUK", "EPOCH": "2025-12-07T06:00:50.455872", "MEAN_MOTION": 13.99876591, "ECCENTRICITY": 0.02014092, "INCLINATION": 74.0304, "RA_OF_ASC_NODE": 339.5232, "ARG_OF_PERICENTER": 116.8065, "MEAN_ANOMALY": 245.3825, "EPHEMERIS_TYPE": 0, "CLASSIFICATION_TYPE": "U", "NORAD_CAT_ID": 39553, "ELEMENT_SET_NO": 999, "REV_AT_EPOCH": 75540, "BSTAR": 0.00088887208, "MEAN_MOTION_DOT": 1.532e-05, "MEAN_MOTION_DDOT": 0}, "tle": {"line1": "1 39553U 93036BUK 25341.25058398  .00001532  00000+0  88887-3 0  9993", "line2": "2 39553  74.0304 339.5232 0201409 116.8065 245.3825 13.99876591755403"}}, "geometry": {"type": "Point", "coordinates": [147.88014129264346, -5.338063592467184]}}, {"type": "Feature", "properties": {"norad_id": 39554, "name": "COSMOS 2251 DEB", "group": "cosmos-2251-debris", "lat": -23.039621535439018, "lon": -106.77650951319414, "alt_km": 538.6752308447385, "timestamp": "2025-12-14T20:40:32.171255+00:00", "meta": {"OBJECT_NAME": "COSMOS 2251 DEB", "OBJECT_ID": "1993-036BUL", "EPOCH": "2025-12-10T06:12:03.924864", "MEAN_MOTION": 15.10130993, "ECCENTRICITY": 0.0002993, "INCLINATION": 74.0187, "RA_OF_ASC_NODE": 269.7383, "ARG_OF_PERICENTER": 74.7531, "MEAN_ANOMALY": 81.5927, "EPHEMERIS_TYPE": 0, "CLASSIFICATION_TYPE": "U", "NORAD_CAT_ID": 39554, "ELEMENT_SET_NO": 999, "REV_AT_EPOCH": 64347, "BSTAR": 0.0046896, "MEAN_MOTION_DOT": 0.000773, "MEAN_MOTION_DDOT": 0}, "tle": {"line1": "1 39554U 93036BUL 25344.25837876  .00077300  00000+0  46896-2 0  9992", "line2": "2 39554  74.0187 269.7383 0002993  74.7531  81.5927 15.10130993643471"}}, "geometry": {"type": "Point", "coordinates": [-106.77650951319414, -23.039621535439018]}}, {"type": "Feature", "properties": {"norad_id": 39583, "name": "COSMOS 2251 DEB", "group": "cosmos-2251-debris", "lat": -6.118982030001594, "lon": -118.62152808929449, "alt_km": 598.3069785259295, "timestamp": "2025-12-14T20:40:32.171265+00:00", "meta": {"OBJECT_NAME": "COSMOS 2251 DEB", "OBJECT_ID": "1993-036BUN", "EPOCH": "2025-12-13T00:19:01.768224", "MEAN_MOTION": 14.60448546, "ECCENTRICITY": 0.01368586, "INCLINATION": 73.9329, "RA_OF_ASC_NODE": 246.7005, "ARG_OF_PERICENTER": 0.0427, "MEAN_ANOMALY": 0.0725, "EPHEMERIS_TYPE": 0, "CLASSIFICATION_TYPE": "U", "NORAD_CAT_ID": 39583, "ELEMENT_SET_NO": 999, "REV_AT_EPOCH": 61783, "BSTAR": 0.0026464366, "MEAN_MOTION_DOT": 0.00014636, "MEAN_MOTION_DDOT": 0}, "tle": {"line1": "1 39583U 93036BUN 25347.01321491  .00014636  00000+0  26464-2 0  9994", "line2": "2 39583  73.9329 246.7005 0136858   0.0427   0.0725 14.60448546617832"}}, "geometry": {"type": "Point", "coordinates": [-118.62152808929449, -6.118982030001594]}}, {"type": "Feature", "properties": {"norad_id": 39585, "name": "COSMOS 2251 DEB", "group": "cosmos-2251-debris", "lat": 13.362125744249138, "lon": 113.38159535292618, "alt_km": 712.5216509650427, "timestamp": "2025-12-14T20:40:32.171275+00:00", "meta": {"OBJECT_NAME": "COSMOS 2251 DEB", "OBJECT_ID": "1993-036BUQ", "EPOCH": "2025-12-14T03:27:48.164544", "MEAN_MOTION": 14.5867271, "ECCENTRICITY": 0.00655931, "INCLINATION": 74.0424, "RA_OF_ASC_NODE": 298.6434, "ARG_OF_PERICENTER": 59.1971, "MEAN_ANOMALY": 301.5627, "EPHEMERIS_TYPE": 0, "CLASSIFICATION_TYPE": "U", "NORAD_CAT_ID": 39585, "ELEMENT_SET_NO": 999, "REV_AT_EPOCH": 62541, "BSTAR": 0.00040250434, "MEAN_MOTION_DOT": 1.903e-05, "MEAN_MOTION_DDOT": 0}, "tle": {"line1": "1 39585U 93036BUQ 25348.14430746  .00001903  00000+0  40250-3 0  9998", "line2": "2 39585  74.0424 298.6434 0065593  59.1971 301.5627 14.58672710625412"}}, "geometry": {"type": "Point", "coordinates": [113.38159535292618, 13.362125744249138]}}]}